1,LAST NAME,FIRST NAME,EMAIL,ZIPCODE,CITY,STATE,ADDRESS,PHONE
1,Hoy,John,xhnebenz@jumpstartlab.com,78705,Austin,TX,300 E 30th St Apt 304,5126732000
2,Dayananda,John,kyllacamerak@jumpstartlab.com,40206,Louisville,KY,513 Emery Rd.,5027410000
3,Dowd,John,sellistarena@jumpstartlab.com,16142,New Wilmington,PA,203 E. Neshannock,7243443000
4,Buckner,John,hhrosl08@jumpstartlab.com,27514,Chapel Hill,NC,101 Stadium Drive,9193895000
5,Bishop,John,dpichard@jumpstartlab.com,13323,Clinton,NY,198 College Hill Road,9085280000
6,Cooray,John,emcallum@jumpstartlab.com,45701,athens,OH,46 East Green Street (Room 449),4402219000
7,Huber,John,nileyd@jumpstartlab.com,21521,Cumberland,MD,60 Pershing St,3016897000
8,Hall,John,rmates6601@jumpstartlab.com,01602,Worcester,MA,266 Olean St.,5087521000
9,Klar,John,cyaison@jumpstartlab.com,53715,Madison,WI,1315 Bowen Court,6512141000
10,Honani,John,jtmiller@jumpstartlab.com,30322,Atlanta,GA,586 Asbury Crircle,2392468000
11,Mclaughlin,John,shrnisar@jumpstartlab.com,17837,lewisburg,PA,701 moore ave box 1207,9148821000
12,White,John,jlex.vlasic@jumpstartlab.com,14850,Ithaca,NY,601 First St,3036532000
13,Dolstad,John,evff.bessette@jumpstartlab.com,14051,East Amherst,NY,8345 Clarnew Dr.,7164001000
14,Wikler,John,ick15@jumpstartlab.com,27104,Winston Salem,NC,510 Straffordshire Rd.,3365292000
15,Venegas,John,renielgr@jumpstartlab.com,14850,Ithaca,NY,881 Boswick,6075920000
16,Copenhaver,John,oteastes@jumpstartlab.com,11731,East Northport,NY,426 5th Street,6313576000
17,Bigwood,John,vpm.odonnell@jumpstartlab.com,24153,salem,VA,roanoke college,4042185000
18,Sharrow,John,gqix.haber@jumpstartlab.com,00000,Johannesburg, South Africa,PW,86 7th Ave, Melville,,0000000000
19,Ng,John,gcrinemea77@jumpstartlab.com,95060,santa cruz,CA,1145 laurel st,0000000000
20,Eller,John,hxshifle@jumpstartlab.com,08544,Princeton,NJ,1056 Frist Center,6092717000
21,White,John,obtrinah@jumpstartlab.com,37916,Knoxville,TN,1714 Grand Ave. Apt. 124,6153375000
22,Cannon,John,fdmiller@jumpstartlab.com,28607,Boone,NC,College St.,9193575000
23,Tough,John,je_bro1@jumpstartlab.com,97330,Corvallis,OR,1250 NW 23rd Street Apt 8,5414303000
24,Kerner,John,jil6@jumpstartlab.com,08544,Princeton,NJ,Frist,5852011000
25,Fink,John,stiorio@jumpstartlab.com,20686,St. Mary's City,MD,16800 Point Lookout Rd.,3213215000
26,McMeekin,John,idnielsaintfelix@jumpstartlab.com,28804,asheville,NC,1 university hts,3362028000
27,Jahne,John,qyieff@jumpstartlab.com,20686,st marys city,MD,16800 Point lookout rd,5555555000
28,Regan,John,sfnghandong@jumpstartlab.com,02138,Cambridge,MA,1815 Harvard Yard Mail Ctr,2485354000
29,Bicknell,John,lqhfksfklgKLJGRskj@jumpstartlab.com,32303,Tallahassee,FL,510 E. 7th Ave.,7579713000
30,Jacobi,John,tyneskaroluk@jumpstartlab.com,23185,Williamsburg,VA,600 Ukrop Way,7036254000
31,Judkins,John,mjjones7@jumpstartlab.com,01824,Chelmsford,MA,25 Cathy Road,6172908000
32,Wasserman,John,flintessential_reflection@jumpstartlab.com,01267,Williamstown,MA,2437 Paresky,8283800000
33,Begay,John,anhevalier@jumpstartlab.com,22213,Arlington,VA,2515 N. Winchester St,7032315000
34,Rivera,John,wxma.jones@jumpstartlab.com,17815,Bloomsburg,PA,400 East Second St.,5706375000
35,Gassam,John,vmug.bojack@jumpstartlab.com,17815,Bloomsburg,PA,400 East Second St.,4843254000
36,Gans,John,kgtrano@jumpstartlab.com,28407,Wilmington,NC,UNCW Station CB# 20360,9195383000
37,Kidder,John,gmk1@jumpstartlab.com,23185,Williamsburg,VA,1203 Jamestown Road, Apt B4,5404470000
38,Gallagher,John,llarunchia001@jumpstartlab.com,11365,Fresh Meadows,NY,71-72 162ND ST,8459887000
39,Walker,John,uaazarus@jumpstartlab.com,05401,bulington,VT,203 south willard st,9732706000
40,Westwood,John,ngelacolwell@jumpstartlab.com,21218,Baltimore,MD,3301 n charles st.,6173650000
41,Asher,John,xlm2@jumpstartlab.com,02155,Medford,MA,328 Houston Hall, Tufts University,2164020000
42,Desanctis,John,vngallag@jumpstartlab.com,24501,Lynchburg,VA,1501 Lakeside Dr,3028587000
43,Loftis,John,jninr5467@jumpstartlab.com,28804,asheville,NC,1 university hts,3362028000
44,MacDonald,John,ejeliaT@jumpstartlab.com,37604,JOhnson City,TN,512 E Watauga Ave,8655851000
45,Raiho,John,gpn@jumpstartlab.com,04102,Portland,ME,272 Danforth St.,7183054000
46,Tuck,John,tbolkart@jumpstartlab.com,04901,Waterville,ME,7911 Mayflower Hill,7183054000
47,Popovitch,John,clorzana@jumpstartlab.com,02138,Cambridge,MA,1112 Harvard Yard Mail Center,7163927000
48,Catsos,John,vqlochowr@jumpstartlab.com,48823,East Lansing,MI,239 Oakhill,2313574000
49,Stork,John,pmilla10@jumpstartlab.com,50014,Ames,IA,303 Welch Ave,7128983000
50,Abdulkarim,John,iwbaugh@jumpstartlab.com,19149,Philadelphia,PA,1434 Elbridge St,2157434000
51,Dubose,John,leonia@jumpstartlab.com,15206,Pittsburgh,PA,140 Stratford Ave,7183054000
52,Zeller,John,eyudartj@jumpstartlab.com,20036,Washington,DC,1608 Rhode Island Ave, NW,8057662000
53,Farshchi,John,kjerations@jumpstartlab.com,26501,Morgantown,WV,8 1/2 Charleston,3042908000
54,Fox,John,lqn1@jumpstartlab.com,14260,Buffalo,NY,350 Student Union, University at Buffalo,7168689000
55,Alexander,John,ep.collier@jumpstartlab.com,49006,Kalamazoo,MI,Academy,5128267000
56,Rosenkvist,John,qpancey@jumpstartlab.com,28403,Wilmington,NC,64654654,0000000000
57,Corkins,John,kjya.courtney@jumpstartlab.com,04240,Lewiston,ME,Bates,9143204000
58,Kittner,John,vfvaruss_campbell@jumpstartlab.com,23185,Williamsburg,VA,CSU 3873 PO Box 8793,7038620000
59,Dyment,John,lqeisler@jumpstartlab.com,40741,London,KY,216 Johnson Addition,6068624000
60,McEachern,John,lqorej8@jumpstartlab.com,10708,Bronxville,NY,1 Rivermere, Apt. 1B,9143251000
61,Wells,John,slnielleariel@jumpstartlab.com,14450,Fairport,NY,2 Vineyard Hill,5854512000
62,Dowley,John,bx14@jumpstartlab.com,94705,Berkeley,CA,2219 Ward St,5748505000
